NORAD_CAT_ID,OBJECT_NAME,OBJECT_TYPE,EPOCH,MEAN_MOTION,ECCENTRICITY,INCLINATION,RA_OF_ASC_NODE,ARG_OF_PERICENTER,MEAN_ANOMALY,BSTAR,MEAN_MOTION_DOT,MEAN_MOTION_DDOT,TLE_LINE0,TLE_LINE1,TLE_LINE2,SEMIMAJOR_AXIS,PERIOD,APOGEE,PERIGEE,DECAYED
52126.0,STARLINK-3732,PAYLOAD,2024-03-31 11:00:02,15.08859263,0.0001309,53.2192,8.4947,80.3354,279.7786,0.00046709,7.157e-05,0.0,0 STARLINK-3732,1 52126U 22029AQ  24091.45835966  .00007157  00000-0  46709-3 0  9992,2 52126  53.2192   8.4947 0001309  80.3354 279.7786 15.08859263114007,6917.822,95.436,540.592,538.781,0.0
52126.0,STARLINK-3732,PAYLOAD,2024-03-31 18:56:58,15.08851768,0.0002689,53.2189,7.0096,81.8133,278.3164,0.00033355,5.026e-05,0.0,0 STARLINK-3732,1 52126U 22029AQ  24091.78956774  .00005026  00000-0  33355-3 0  9995,2 52126  53.2189   7.0096 0002689  81.8133 278.3164 15.08851768114058,6917.844,95.437,541.57,537.849,0.0
52126.0,STARLINK-3732,PAYLOAD,2024-03-31 22:07:45,15.08830837,0.0001221,53.219,6.4142,90.067,270.0463,-8.2669e-05,-1.603e-05,0.0,0 STARLINK-3732,1 52126U 22029AQ  24091.92205045 -.00001603  00000-0 -82669-4 0  9991,2 52126  53.2190   6.4142 0001221  90.0670 270.0463 15.08830837114071,6917.908,95.438,540.618,538.929,0.0
52126.0,STARLINK-3732,PAYLOAD,2024-04-01 04:29:17,15.0883604,0.0001349,53.2188,5.2279,95.7817,264.3329,5.5574e-05,5.97e-06,0.0,0 STARLINK-3732,1 52126U 22029AQ  24092.18701094  .00000597  00000-0  55574-4 0  9999,2 52126  53.2188   5.2279 0001349  95.7817 264.3329 15.08836040114116,6917.892,95.438,540.691,538.824,0.0
52126.0,STARLINK-3732,PAYLOAD,2024-04-01 10:50:49,15.08848345,0.0001338,53.2189,4.0367,92.1509,267.9636,0.00032486,4.887e-05,0.0,0 STARLINK-3732,1 52126U 22029AQ  24092.45196637  .00004887  00000-0  32486-3 0  9992,2 52126  53.2189   4.0367 0001338  92.1509 267.9636 15.08848345114154,6917.855,95.437,540.645,538.794,0.0
52126.0,STARLINK-3732,PAYLOAD,2024-04-02 02:44:41,15.08842964,0.0001451,53.2191,1.0639,90.6777,269.4381,0.00014798,2.068e-05,0.0,0 STARLINK-3732,1 52126U 22029AQ  24093.11436817  .00002068  00000-0  14798-3 0  9998,2 52126  53.2191   1.0639 0001451  90.6777 269.4381 15.08842964114258,6917.871,95.437,540.74,538.733,0.0
52126.0,STARLINK-3732,PAYLOAD,2024-04-02 10:41:36,15.08856495,0.0001411,53.2193,359.5762,83.8994,276.2158,0.00035837,5.423e-05,0.0,0 STARLINK-3732,1 52126U 22029AQ  24093.44556123  .00005423  00000-0  35837-3 0  9992,2 52126  53.2193 359.5762 0001411  83.8994 276.2158 15.08856495114307,6917.83,95.437,540.671,538.719,0.0
52126.0,STARLINK-3732,PAYLOAD,2024-04-02 17:03:09,15.08829773,0.0001313,53.2183,358.3858,81.2337,278.8804,-0.00018178,-3.179e-05,0.0,0 STARLINK-3732,1 52126U 22029AQ  24093.71053091 -.00003179  00000-0 -18178-3 0  9995,2 52126  53.2183 358.3858 0001313  81.2337 278.8804 15.08829773114342,6917.912,95.438,540.685,538.868,0.0
52126.0,STARLINK-3732,PAYLOAD,2024-04-03 01:00:05,15.08841639,0.0001384,53.2184,356.8994,82.4946,277.6204,0.00011614,1.561e-05,0.0,0 STARLINK-3732,1 52126U 22029AQ  24094.04172860  .00001561  00000-0  11614-3 0  9997,2 52126  53.2184 356.8994 0001384  82.4946 277.6204 15.08841639114395,6917.875,95.437,540.698,538.783,0.0
52126.0,STARLINK-3732,PAYLOAD,2024-04-03 10:32:24,15.0884437,0.0001437,53.2184,355.1171,83.3106,276.805,0.00024079,3.547e-05,0.0,0 STARLINK-3732,1 52126U 22029AQ  24094.43916736  .00003547  00000-0  24079-3 0  9993,2 52126  53.2184 355.1171 0001437  83.3106 276.8050 15.08844370114453,6917.867,95.437,540.726,538.738,0.0
52126.0,STARLINK-3732,PAYLOAD,2024-04-03 23:15:29,15.08842648,0.0001504,53.2182,352.737,83.7705,276.3458,0.00018913,2.724e-05,0.0,0 STARLINK-3732,1 52126U 22029AQ  24094.96908931  .00002724  00000-0  18913-3 0  9995,2 52126  53.2182 352.7370 0001504  83.7705 276.3458 15.08842648114531,6917.872,95.437,540.778,538.697,0.0
52126.0,STARLINK-3732,PAYLOAD,2024-04-04 02:26:15,15.08842821,0.0001393,53.2166,352.1413,84.9392,275.1759,0.00033108,4.986e-05,0.0,0 STARLINK-3732,1 52126U 22029AQ  24095.10156939  .00004986  00000-0  33108-3 0  9990,2 52126  53.2166 352.1413 0001393  84.9392 275.1759 15.08842821114552,6917.872,95.437,540.7,538.773,0.0
52126.0,STARLINK-3732,PAYLOAD,2024-04-04 10:23:10,15.08850196,0.0001249,53.2167,350.6531,86.2972,273.8163,0.00050797,7.808e-05,0.0,0 STARLINK-3732,1 52126U 22029AQ  24095.43276615  .00007808  00000-0  50797-3 0  9999,2 52126  53.2167 350.6531 0001249  86.2972 273.8163 15.08850196114600,6917.849,95.437,540.578,538.85,0.0
52126.0,STARLINK-3732,PAYLOAD,2024-04-04 23:06:16,15.08841027,0.0001201,53.2174,348.2766,77.0075,283.1051,0.00015661,2.206e-05,0.0,0 STARLINK-3732,1 52126U 22029AQ  24095.96268885  .00002206  00000-0  15661-3 0  9995,2 52126  53.2174 348.2766 0001201  77.0075 283.1051 15.08841027114682,6917.877,95.437,540.573,538.911,0.0
52126.0,STARLINK-3732,PAYLOAD,2024-04-05 10:13:57,15.0885394,0.0001387,53.2171,346.1939,82.0765,278.0385,0.00048341,7.417e-05,0.0,0 STARLINK-3732,1 52126U 22029AQ  24096.42636463  .00007417  00000-0  48341-3 0  9998,2 52126  53.2171 346.1939 0001387  82.0765 278.0385 15.08853940114753,6917.838,95.437,540.662,538.743,0.0
52126.0,STARLINK-3732,PAYLOAD,2024-04-05 19:46:16,15.0884444,0.00018,53.2178,344.4085,97.3843,262.7354,0.00021494,3.135e-05,0.0,0 STARLINK-3732,1 52126U 22029AQ  24096.82380699  .00003135  00000-0  21494-3 0  9992,2 52126  53.2178 344.4085 0001800  97.3843 262.7354 15.08844440114817,6917.867,95.437,540.977,538.487,0.0
52126.0,STARLINK-3732,PAYLOAD,2024-04-05 21:21:40,15.08841679,0.0001746,53.2173,344.1113,93.8052,266.314,8.7565e-05,1.106e-05,0.0,0 STARLINK-3732,1 52126U 22029AQ  24096.89004800  .00001106  00000-0  87565-4 0  9994,2 52126  53.2173 344.1113 0001746  93.8052 266.3140 15.08841679114828,6917.875,95.437,540.948,538.532,0.0
52126.0,STARLINK-3732,PAYLOAD,2024-04-06 02:07:49,15.08843049,0.0001605,53.2189,343.219,96.7149,263.4026,5.9715e-05,6.63e-06,0.0,0 STARLINK-3732,1 52126U 22029AQ  24097.08876782  .00000663  00000-0  59715-4 0  9995,2 52126  53.2189 343.2190 0001605  96.7149 263.4026 15.08843049114850,6917.871,95.437,540.846,538.626,0.0
52126.0,STARLINK-3732,PAYLOAD,2024-04-06 22:47:50,15.08841953,0.0001381,53.2179,339.3547,84.2179,275.897,0.00016564,2.349e-05,0.0,0 STARLINK-3732,1 52126U 22029AQ  24097.94988811  .00002349  00000-0  16564-3 0  9994,2 52126  53.2179 339.3547 0001381  84.2179 275.8970 15.08841953114988,6917.874,95.437,540.695,538.784,0.0
52126.0,STARLINK-3732,PAYLOAD,2024-04-07 01:58:36,15.08844331,0.000136,53.218,338.7609,82.1139,278.0008,0.00010442,1.375e-05,0.0,0 STARLINK-3732,1 52126U 22029AQ  24098.08236714  .00001375  00000-0  10442-3 0  9995,2 52126  53.2180 338.7609 0001360  82.1139 278.0008 15.08844331115006,6917.867,95.437,540.673,538.791,0.0
52126.0,STARLINK-3732,PAYLOAD,2024-04-07 21:03:14,15.08836104,0.0001457,53.2179,335.1919,84.6523,275.4635,9.5611e-05,1.234e-05,0.0,0 STARLINK-3732,1 52126U 22029AQ  24098.87725315  .00001234  00000-0  95611-4 0  9998,2 52126  53.2179 335.1919 0001457  84.6523 275.4635 15.08836104115129,6917.892,95.438,540.765,538.749,0.0
52126.0,STARLINK-3732,PAYLOAD,2024-04-07 22:38:38,15.08830901,0.0001326,53.2178,334.8925,86.9079,273.2065,0.00025734,3.809e-05,0.0,0 STARLINK-3732,1 52126U 22029AQ  24098.94349618  .00003809  00000-0  25734-3 0  9992,2 52126  53.2178 334.8925 0001326  86.9079 273.2065 15.08830901115130,6917.908,95.438,540.691,538.856,0.0
52126.0,STARLINK-3732,PAYLOAD,2024-04-08 08:10:57,15.08824497,0.0001112,53.2166,333.1098,80.4195,279.6923,-0.00012581,-2.289e-05,0.0,0 STARLINK-3732,1 52126U 22029AQ  24099.34094005 -.00002289  00000-0 -12581-3 0  9993,2 52126  53.2166 333.1098 0001112  80.4195 279.6923 15.08824497115193,6917.928,95.439,540.562,539.024,0.0
52126.0,STARLINK-3732,PAYLOAD,2024-04-08 22:29:26,15.08813948,0.0001582,53.2187,330.4342,86.1014,274.0159,-0.00014376,-2.574e-05,0.0,0 STARLINK-3732,1 52126U 22029AQ  24099.93711628 -.00002574  00000-0 -14376-3 0  9996,2 52126  53.2187 330.4342 0001582  86.1014 274.0159 15.08813948115281,6917.96,95.439,540.919,538.731,0.0
52126.0,STARLINK-3732,PAYLOAD,2024-04-09 01:40:13,15.08816342,0.0001929,53.2186,329.8375,77.8755,282.2453,-8.388e-05,-1.622e-05,0.0,0 STARLINK-3732,1 52126U 22029AQ  24100.06959794 -.00001622  00000-0 -83880-4 0  9991,2 52126  53.2186 329.8375 0001929  77.8755 282.2453 15.08816342115304,6917.953,95.439,541.152,538.483,0.0
52126.0,STARLINK-3732,PAYLOAD,2024-04-09 08:01:44,15.08843788,0.0001115,53.2186,328.6477,78.2131,281.8986,0.00029503,4.411e-05,0.0,0 STARLINK-3732,1 52126U 22029AQ  24100.33454353  .00004411  00000-0  29503-3 0  9990,2 52126  53.2186 328.6477 0001115  78.2131 281.8986 15.08843788115348,6917.869,95.437,540.505,538.962,0.0
52126.0,STARLINK-3732,PAYLOAD,2024-04-10 07:52:31,15.08859637,0.0002831,53.216,324.1865,73.3002,286.83,0.000446,6.821e-05,0.0,0 STARLINK-3732,1 52126U 22029AQ  24101.32813728  .00006821  00000-0  44600-3 0  9997,2 52126  53.2160 324.1865 0002831  73.3002 286.8300 15.08859637115492,6917.82,95.436,541.644,537.727,0.0
52126.0,STARLINK-3732,PAYLOAD,2024-04-10 20:35:36,15.08844633,0.0001152,53.2157,321.8096,77.9207,282.1914,-0.00014181,-2.544e-05,0.0,0 STARLINK-3732,1 52126U 22029AQ  24101.85805966 -.00002544  00000-0 -14181-3 0  9991,2 52126  53.2157 321.8096 0001152  77.9207 282.1914 15.08844633115579,6917.866,95.437,540.528,538.934,0.0
52126.0,STARLINK-3732,PAYLOAD,2024-04-10 22:10:59,15.08846496,0.0001233,53.217,321.5122,76.175,283.9379,-0.00011175,-2.066e-05,0.0,0 STARLINK-3732,1 52126U 22029AQ  24101.92429866 -.00002066  00000-0 -11175-3 0  9999,2 52126  53.2170 321.5122 0001233  76.1750 283.9379 15.08846496115589,6917.861,95.437,540.579,538.873,0.0
52126.0,STARLINK-3732,PAYLOAD,2024-04-11 07:43:17,15.08852941,0.000126,53.2173,319.7285,78.7028,281.4106,1.6409e-05,-2.7e-07,0.0,0 STARLINK-3732,1 52126U 22029AQ  24102.32173309 -.00000027  00000-0  16409-4 0  9992,2 52126  53.2173 319.7285 0001260  78.7028 281.4106 15.08852941115647,6917.841,95.437,540.577,538.834,0.0
